#dP2023  1  9  0  0  0.00000000      96 __u+U IGS14 FIT  IAC
## 2244  86400.00000000   900.00000000 59953 0.0000000000000
+  119   C06C07C08C09C10C11C12C13C14C16C19C20C21C22C23C24C25
+        C26C27C28C29C30C32C33C34C35C36C37C38C39C40C41C42C43
+        C44C45C46E01E02E03E04E05E07E08E09E10E11E12E13E14E15
+        E18E19E21E24E25E26E27E30E31E33E34E36G01G02G03G04G05
+        G06G07G08G09G10G11G12G13G14G15G16G17G18G19G20G21G22
+        G23G24G25G26G27G29G30G31G32J02J03J04R01R02R03R04R05
+        R07R08R09R11R12R13R14R15R16R17R18R19R20R21R22R24R25
++         7  7  7  7  7  7  7  7  7  7  6  6  6  6  6  6  6
++         5  6  6  6  6  6  6  6  8  6  6  6  6  6  6  6  7
++         6  6  6  4  4  4  4  4  4  4  4  4  4  4  4  5  4
++         5  4  5  4  4  4  5  4  4  4  4  4  3  3  3  4  4
++         3  3  4  4  3  4  3  3  3  3  4  3  4  3  4  3  4
++         3  3  3  4  4  3  3  4  3  9  9  9  7  7  7  7  6
++         7  7  7  7  7  8  7  6  6  7  6  8  8  7  7  6  8
%c M  cc GPS ccc cccc cccc cccc cccc ccccc ccccc ccccc ccccc
%c cc cc ccc ccc cccc cccc cccc cccc ccccc ccccc ccccc ccccc
%f  1.2500000  1.025000000  0.00000000000  0.000000000000000
%f  0.0000000  0.000000000  0.00000000000  0.000000000000000
%i    0    0    0    0      0      0      0      0         0
%i    0    0    0    0      0      0      0      0         0
/* INFORMATION & ANALYSIS CENTER (IAC)            FINAL DATA
/* S/V CLOCKS ARE ALIGNED TO GNSS TIME                      
/* G:C1WC2W R:C1PC2P E:C1XC5X C:C2IC6I J:C1CC2S             
/* PCV:IGS20_2239 OL/AL:FES2004  NONE     YN ORB:CoN CLK:CoN
*  2023 01 09  8 15  0.00000000
PC06 -15897.771703  37810.751469   9118.474144    206.938994
PC07  -1037.100946  34406.649748  24488.334281     41.607395
PC08 -10964.411423  20015.116585 -35475.401788    527.198759
PC09 -10349.198033  36895.588907  17347.848228    188.568808
PC10   4284.274831  36628.747945  21160.983382     35.729605
PC11 -14063.443131  23698.056079   4546.388852   -188.152770
PC12 -18003.375487   9508.438747  19132.215152    388.251307
PC13  -4891.930555  21988.217968 -35496.483117    178.935132
PC14  -6072.535936  16495.501966 -21669.358384    349.681629
PC16 -17481.338113  37614.483124   6903.863993     85.606248
PC19  -2467.046926 -22109.987647  16861.831312   -897.975104
PC20  12404.234317  -9671.012042  23062.433075    774.364598
PC21 -20897.028597  -9585.561270 -15791.857659   -918.270582
PC22 -16619.588174 -22397.179596    574.743958   -695.254584
PC23  13564.994451  13188.062657  20506.047246   -871.144185
PC24 -24686.672422   9570.690050   8848.022051   -564.572430
PC25  -6334.879994  16606.825578  21506.015187     52.640832
PC26 -27026.792813   -983.402821  -6978.690188    -61.777890
PC27  16840.547253    -15.678746 -22269.877170     78.860430
PC28   7452.348905  17902.298566 -20060.596036     56.842683
PC29   6365.560155 -26662.763582   5237.605210     65.009578
PC30  16594.435677 -18563.688329 -12627.699640      1.263897
PC32  21006.180107   9490.283120  15747.793945   -655.750030
PC33   2529.706390  22075.747387 -16884.861741   -882.846376
PC34 -16262.810769  19465.498223  11600.818834     79.674828
PC35  -7175.820907 -18833.508752  19313.662485    170.924133
PC36   7436.098800 -16400.214970 -21299.914573   -707.460095
PC37  26528.329798   2550.302777   8231.132121   -853.302925
PC38 -19113.088025  20901.380177 -31233.431849     50.721214
PC39 -19287.275102  37350.348130    289.997468     -1.361719
PC40  -4593.945112  30795.702928  28521.118150    -12.111172
PC41  16421.808764  22532.405404  -1100.594856   -473.504210
PC42 -13276.990337   8556.816481 -22962.506206   -906.786386
PC43  -6951.460987  26639.888572  -4479.788061      1.148216
PC44 -16874.768894    311.638817  22210.245504    171.594358
PC45 -13983.207571 -12917.441913 -20421.359848    -45.283641
PC46  23580.580366 -10525.829884 -10529.982845    -25.223342
PE01  27463.614370   4763.537525  -9943.906675   -592.325028
PE02 -27412.917859  -4516.350667  10243.478997     13.623752
PE03 -17062.232788    452.854510 -24190.519996   -638.141161
PE04  10515.607432 -20859.059643  18184.106303    -32.274946
PE05 -13717.669447 -20716.666750 -16092.965789   -106.932826
PE07   2381.335563  29476.631471  -1324.606253    -13.772473
PE08 -10412.039550  20793.873577 -18320.667242    -16.507085
PE09  -2320.259170 -29465.226903   1523.679878   -793.688426
PE10  14826.375479 -21844.453037  13381.908456   -503.791621
PE11   4806.964422 -20421.200630  20885.198371    380.964368
PE12  21652.754038 -19688.241764   4507.490550   -377.651052
PE13  -5711.483896  20645.086327 -20415.079396    430.030433
PE14   3917.065407  30706.250780  -5230.955578    108.340049
PE15 -21798.942333  19579.525239  -4166.961647    695.362377
PE18   2909.836077 -24691.021055  -2574.013525   -530.307674
PE19  17083.055883   2742.462279  24018.128658  -3532.172794
PE21  23800.394186  15980.578149   7344.300215   -505.207896
PE24  -5237.540606 -18980.904306 -22127.432265  -1048.068195
PE25 -23626.790767 -16124.288722  -7639.075898   -596.792725
PE26  14336.078655   9091.129364 -24236.996345  -1856.722543
PE27   6255.758935  19040.107466  21776.029743   -483.361077
PE30 -15510.809531  10376.419190  22969.300601  -1145.774710
PE31  14766.740851 -10865.447401 -23233.118323   -512.844803
PE33  24901.419008  -6983.543906 -14395.729623   -454.546861
PE34 -24930.909864   7153.961299  14272.626138    -23.911038
PE36 -13529.480601  -9612.593776  24517.956758   -487.768044
PG01  -7568.721039  18369.017798 -17761.198098    226.697703
PG02   3358.261586 -18979.466847  19002.413345   -628.374267
PG03   2372.370529  16863.021984 -20534.726147   -373.153487
PG04   -645.200499  26462.370083  -1277.886275    -52.318924
PG05  13063.682413  -9823.632794  20787.651256   -111.297928
PG06  22314.562831  -3033.819892 -14079.812681    555.517238
PG07   7986.431669  13461.179667  21877.169859    261.695926
PG08  -7177.517140  22118.779042  12420.151197   -102.702849
PG09   8079.048658  23491.356841   9255.409456   -239.550345
PG10 -24141.663766 -11359.527751  -1512.784958    -19.666643
PG11  23710.192852 -11737.698830  -2115.408748    -74.665935
PG12    238.462967 -16768.788832 -20896.149091   -325.944737
PG13  12884.812515 -16029.713192  16523.324516    456.321494
PG14  23013.964804  13385.517128    469.821945    -52.921552
PG15   4487.382092 -23144.935131  11506.707025      3.072991
PG16 -16970.917847   5210.647862  19609.618155   -524.350815
PG17  12476.719650  13341.176191 -18810.779546    692.099998
PG18 -10248.708566 -11160.862961  21828.002420    -91.906132
PG19  14949.780067   1335.400332 -22143.648175    261.707396
PG20  22188.043534  -3395.666569  14056.954340    458.201998
PG21 -14391.527786  19359.628803  -9554.179309    153.312634
PG22 -14965.195545   2993.697659 -21295.797952    402.140082
PG23 -18999.126862 -16216.673178   9235.189726      1.969765
PG24   9884.943728 -20416.182980 -13815.059829    -22.023082
PG25 -10472.252042 -18420.834532 -16489.433675    409.694561
PG26 -24359.145598  -2189.326037  10657.929834    240.005525
PG27 -12746.221047  12336.048822  19405.311765    131.548347
PG29  -4091.833470 -25159.649067   7271.881219   -579.336735
PG30  18732.409474   4433.437110  18494.995184   -533.698374
PG31 -23437.784165   3813.600505 -12520.003665   -205.795122
PG32 -14473.228020  -9833.983586 -19882.018230   -358.087761
PJ02 -28391.174305  20813.061162  28222.107739     -0.523275
PJ03 -32478.188586  26838.950297   8316.366189     -0.079388
PJ04 -21467.190756  23745.735904 -22283.936552    118.033327
PR01   1468.199151  19390.138101 -16513.447476     20.945635
PR02  11758.657605  22571.538826   1067.706190    -23.330419
PR03  14968.317674  11888.817359  16899.252913     70.558131
PR04   9593.466149  -4913.988776  23145.452051    171.678640
PR05   -807.456740 -19221.086303  16776.013616    105.898369
PR07 -14890.308085 -11349.943532 -17315.041815     47.656069
PR08  -9587.750249   5117.007377 -23021.053803    -68.925084
PR09 -12845.409846 -10073.911602 -19560.397698     97.579101
PR11 -22829.653626   4136.626325  10593.076030      8.053759
PR12  -6815.280772  10374.838898  22305.965751     24.189907
PR13  11159.263580  10264.534004  20489.977697    -30.774190
PR14  24567.080629   3844.163861   5722.405405     24.205540
PR15  22321.001680  -4429.534289 -11509.928236     91.820381
PR16   7113.277816 -10223.631824 -22261.650326      9.738327
PR17  12298.951860   -201.336867 -22325.210537    594.163834
PR18  16683.953948 -14943.653589 -12235.111466     60.904787
PR19  13669.960219 -21342.401544   2882.395116   -217.602271
PR20    357.412525 -15782.986011  20065.151660    -85.511835
PR21 -13062.338153   1821.851981  21845.387464   -364.039642
PR22 -17398.274305  14689.301182  11513.610636     65.841720
PR24    945.742564  15559.380060 -20171.413351    138.401137
PR25 -12378.207531   -883.629451  22298.336923     51.118006
EOF
